{"type": "FeatureCollection", "features": [ {"type": "Feature", "properties": {"norad_id": 30467, "name": "FENGYUN 1C DEB", "group": "fengyun-1c-debris", "lat": -2.2309524263105796, "lon": 25.40205637008707, "alt_km": 844.1330717393421, "timestamp": "2025-12-23T18:59:32.244093+00:00", "meta": {"OBJECT_NAME": "FENGYUN 1C DEB", "OBJECT_ID": "1999-025AGE", "EPOCH": "2025-12-23T00:38:09.528288", "MEAN_MOTION": 14.17309282, "ECCENTRICITY": 0.00651851, "INCLINATION": 98.6779, "RA_OF_ASC_NODE": 24.3145, "ARG_OF_PERICENTER": 98.3407, "MEAN_ANOMALY": 319.9669, "EPHEMERIS_TYPE": 0, "CLASSIFICATION_TYPE": "U", "NORAD_CAT_ID": 30467, "ELEMENT_SET_NO": 999, "REV_AT_EPOCH": 97323, "BSTAR": 0.00078321719, "MEAN_MOTION_DOT": 1.574e-05, "MEAN_MOTION_DDOT": 0}, "tle": {"line1": "1 30467U 99025AGE 25357.02649917  .00001574  00000+0  78322-3 0  9996", "line2": "2 30467  98.6779  24.3145 0065185  98.3407 319.9669 14.17309282973237"}}, "geometry": {"type": "Point", "coordinates": [25.40205637008707, -2.2309524263105796]}}, {"type": "Feature", "properties": {"norad_id": 30468, "name": "FENGYUN 1C DEB", "group": "fengyun-1c-debris", "lat": 80.4204912780801, "lon": 10.840720761117717, "alt_km": 804.9177748231023, "timestamp": "2025-12-23T18:59:32.244102+00:00", "meta": {"OBJECT_NAME": "FENGYUN 1C DEB", "OBJECT_ID": "1999-025AGF", "EPOCH": "2025-12-23T05:11:24.108864", "MEAN_MOTION": 14.2076911, "ECCENTRICITY": 0.00713808, "INCLINATION": 98.9215, "RA_OF_ASC_NODE": 78.8107, "ARG_OF_PERICENTER": 9.42, "MEAN_ANOMALY": 16.4672, "EPHEMERIS_TYPE": 0, "CLASSIFICATION_TYPE": "U", "NORAD_CAT_ID": 30468, "ELEMENT_SET_NO": 999, "REV_AT_EPOCH": 96959, "BSTAR": 0.0014073656, "MEAN_MOTION_DOT": 3.072e-05, "MEAN_MOTION_DDOT": 0}, "tle": {"line1": "1 30468U 99025AGF 25357.21625126  .00003072  00000+0  14074-2 0  9992", "line2": "2 30468  98.9215  78.8107 0071380   9.4200  16.4672 14.20769110969597"}}, "geometry": {"type": "Point", "coordinates": [10.840720761117717, 80.4204912780801]}}, {"type": "Feature", "properties": {"norad_id": 30469, "name": "FENGYUN 1C DEB", "group": "fengyun-1c-debris", "lat": -12.461199192833107, "lon": 25.748759618148352, "alt_km": 840.6525779866452, "timestamp": "2025-12-23T18:59:32.244111+00:00", "meta": {"OBJECT_NAME": "FENGYUN 1C DEB", "OBJECT_ID": "1999-025AGG", "EPOCH": "2025-12-21T09:55:20.155008", "MEAN_MOTION": 13.96533889, "ECCENTRICITY": 0.01586465, "INCLINATION": 98.4787, "RA_OF_ASC_NODE": 205.4451, "ARG_OF_PERICENTER": 145.3624, "MEAN_ANOMALY": 337.2453, "EPHEMERIS_TYPE": 0, "CLASSIFICATION_TYPE": "U", "NORAD_CAT_ID": 30469, "ELEMENT_SET_NO": 999, "REV_AT_EPOCH": 95827, "BSTAR": 0.00074434433, "MEAN_MOTION_DOT": 1.106e-05, "MEAN_MOTION_DDOT": 0}, "tle": {"line1": "1 30469U 99025AGG 25355.41342772  .00001106  00000+0  74434-3 0  9999", "line2": "2 30469  98.4787 205.4451 0158646 145.3624 337.2453 13.96533889958276"}}, "geometry": {"type": "Point", "coordinates": [25.748759618148352, -12.461199192833107]}}, {"type": "Feature", "properties": {"norad_id": 30471, "name": "FENGYUN 1C DEB", "group": "fengyun-1c-debris", "lat": -64.7191730103562, "lon": -114.20130167991645, "alt_km": 798.6054539699344, "timestamp": "2025-12-23T18:59:32.244120+00:00", "meta": {"OBJECT_NAME": "FENGYUN 1C DEB", "OBJECT_ID": "1999-025AGJ", "EPOCH": "2025-12-23T04:31:34.853376", "MEAN_MOTION": 14.13690299, "ECCENTRICITY": 0.00834076, "INCLINATION": 99.0535, "RA_OF_ASC_NODE": 84.9191, "ARG_OF_PERICENTER": 224.3853, "MEAN_ANOMALY": 195.6229, "EPHEMERIS_TYPE": 0, "CLASSIFICATION_TYPE": "U", "NORAD_CAT_ID": 30471, "ELEMENT_SET_NO": 999, "REV_AT_EPOCH": 96590, "BSTAR": 0.0017646418, "MEAN_MOTION_DOT": 3.401e-05, "MEAN_MOTION_DDOT": 0}, "tle": {"line1": "1 30471U 99025AGJ 25357.18859784  .00003401  00000+0  17646-2 0  9995", "line2": "2 30471  99.0535  84.9191 0083407 224.3853 195.6229 14.13690299965906"}}, "geometry": {"type": "Point", "coordinates": [-114.20130167991645, -64.7191730103562]}}, {"type": "Feature", "properties": {"norad_id": 30472, "name": "FENGYUN 1C DEB", "group": "fengyun-1c-debris", "lat": 28.213916937063374, "lon": -76.04998048861508, "alt_km": 718.5914694343028, "timestamp": "2025-12-23T18:59:32.244129+00:00", "meta": {"OBJECT_NAME": "FENGYUN 1C DEB", "OBJECT_ID": "1999-025AGK", "EPOCH": "2025-12-23T05:21:42.514272", "MEAN_MOTION": 14.53969342, "ECCENTRICITY": 0.00374861, "INCLINATION": 98.6518, "RA_OF_ASC_NODE": 98.6777, "ARG_OF_PERICENTER": 47.1888, "MEAN_ANOMALY": 12.7047, "EPHEMERIS_TYPE": 0, "CLASSIFICATION_TYPE": "U", "NORAD_CAT_ID": 30472, "ELEMENT_SET_NO": 999, "REV_AT_EPOCH": 98193, "BSTAR": 0.0022470452, "MEAN_MOTION_DOT": 9.516e-05, "MEAN_MOTION_DDOT": 0}, "tle": {"line1": "1 30472U 99025AGK 25357.22340873  .00009516  00000+0  22470-2 0  9999", "line2": "2 30472  98.6518  98.6777 0037486  47.1888  12.7047 14.53969342981930"}}, "geometry": {"type": "Point", "coordinates": [-76.04998048861508, 28.213916937063374]}}, {"type": "Feature", "properties": {"norad_id": 30474, "name": "FENGYUN 1C DEB", "group": "fengyun-1c-debris", "lat": 69.21353143384188, "lon": -78.43535858202522, "alt_km": 771.5403164773061, "timestamp": "2025-12-23T18:59:32.244138+00:00", "meta": {"OBJECT_NAME": "FENGYUN 1C DEB", "OBJECT_ID": "1999-025AGM", "EPOCH": "2025-12-23T00:41:54.152736", "MEAN_MOTION": 14.37882203, "ECCENTRICITY": 0.0023165, "INCLINATION": 98.928, "RA_OF_ASC_NODE": 76.3091, "ARG_OF_PERICENTER": 330.1899, "MEAN_ANOMALY": 155.0116, "EPHEMERIS_TYPE": 0, "CLASSIFICATION_TYPE": "U", "NORAD_CAT_ID": 30474, "ELEMENT_SET_NO": 999, "REV_AT_EPOCH": 97541, "BSTAR": 0.0022303734, "MEAN_MOTION_DOT": 6.709e-05, "MEAN_MOTION_DDOT": 0}, "tle": {"line1": "1 30474U 99025AGM 25357.02909899  .00006709  00000+0  22304-2 0  9995", "line2": "2 30474  98.9280  76.3091 0023165 330.1899 155.0116 14.37882203975415"}}, "geometry": {"type": "Point", "coordinates": [-78.43535858202522, 69.21353143384188]}}, {"type": "Feature", "properties": {"norad_id": 30475, "name": "FENGYUN 1C DEB", "group": "fengyun-1c-debris", "lat": 13.354538638479474, "lon": 37.05523248780808, "alt_km": 853.8428567658348, "timestamp": "2025-12-23T18:59:32.244147+00:00", "meta": {"OBJECT_NAME": "FENGYUN 1C DEB", "OBJECT_ID": "1999-025AGN", "EPOCH": "2025-12-23T02:06:14.575680", "MEAN_MOTION": 14.15710702, "ECCENTRICITY": 0.00430037, "INCLINATION": 98.7871, "RA_OF_ASC_NODE": 38.4659, "ARG_OF_PERICENTER": 260.7797, "MEAN_ANOMALY": 128.0761, "EPHEMERIS_TYPE": 0, "CLASSIFICATION_TYPE": "U", "NORAD_CAT_ID": 30475, "ELEMENT_SET_NO": 999, "REV_AT_EPOCH": 97098, "BSTAR": 0.00075367045, "MEAN_MOTION_DOT": 1.448e-05, "MEAN_MOTION_DDOT": 0}, "tle": {"line1": "1 30475U 99025AGN 25357.08766870  .00001448  00000+0  75367-3 0  9995", "line2": "2 30475  98.7871  38.4659 0043003 260.7797 128.0761 14.15710702970980"}}, "geometry": {"type": "Point", "coordinates": [37.05523248780808, 13.354538638479474]}}, {"type": "Feature", "properties": {"norad_id": 30476, "name": "FENGYUN 1C DEB", "group": "fengyun-1c-debris", "lat": -19.688706718900914, "lon": 38.63999899012361, "alt_km": 817.0680359912976, "timestamp": "2025-12-23T18:59:32.244157+00:00", "meta": {"OBJECT_NAME": "FENGYUN 1C DEB", "OBJECT_ID": "1999-025AGP", "EPOCH": "2025-12-21T01:19:07.603968", "MEAN_MOTION": 14.20955213, "ECCENTRICITY": 0.0045695, "INCLINATION": 99.1242, "RA_OF_ASC_NODE": 32.5189, "ARG_OF_PERICENTER": 275.565, "MEAN_ANOMALY": 113.9677, "EPHEMERIS_TYPE": 0, "CLASSIFICATION_TYPE": "U", "NORAD_CAT_ID": 30476, "ELEMENT_SET_NO": 999, "REV_AT_EPOCH": 96963, "BSTAR": 0.0010133395, "MEAN_MOTION_DOT": 2.171e-05, "MEAN_MOTION_DDOT": 0}, "tle": {"line1": "1 30476U 99025AGP 25355.05494912  .00002171  00000+0  10133-2 0  9999", "line2": "2 30476  99.1242  32.5189 0045695 275.5650 113.9677 14.20955213969635"}}, "geometry": {"type": "Point", "coordinates": [38.63999899012361, -19.688706718900914]}}, {"type": "Feature", "properties": {"norad_id": 30477, "name": "FENGYUN 1C DEB", "group": "fengyun-1c-debris", "lat": 80.27933325930256, "lon": 3.9712911704159892, "alt_km": 1475.0262215933726, "timestamp": "2025-12-23T18:59:32.244166+00:00", "meta": {"OBJECT_NAME": "FENGYUN 1C DEB", "OBJECT_ID": "1999-025AGQ", "EPOCH": "2025-12-22T11:50:31.397280", "MEAN_MOTION": 13.23857817, "ECCENTRICITY": 0.04348962, "INCLINATION": 99.425, "RA_OF_ASC_NODE": 78.6262, "ARG_OF_PERICENTER": 253.6338, "MEAN_ANOMALY": 132.848, "EPHEMERIS_TYPE": 0, "CLASSIFICATION_TYPE": "U", "NORAD_CAT_ID": 30477, "ELEMENT_SET_NO": 999, "REV_AT_EPOCH": 90848, "BSTAR": 0.0027367596, "MEAN_MOTION_DOT": 1.889e-05, "MEAN_MOTION_DDOT": 0}, "tle": {"line1": "1 30477U 99025AGQ 25356.49341895  .00001889  00000+0  27368-2 0  9993", "line2": "2 30477  99.4250  78.6262 0434896 253.6338 132.8480 13.23857817908487"}}, "geometry": {"type": "Point", "coordinates": [3.9712911704159892, 80.27933325930256]}}, {"type": "Feature", "properties": {"norad_id": 30480, "name": "FENGYUN 1C DEB", "group": "fengyun-1c-debris", "lat": -41.57284515946414, "lon": -175.30719140991351, "alt_km": 823.7403816016649, "timestamp": "2025-12-23T18:59:32.244175+00:00", "meta": {"OBJECT_NAME": "FENGYUN 1C DEB", "OBJECT_ID": "1999-025AGS", "EPOCH": "2025-12-22T06:51:24.786720", "MEAN_MOTION": 14.3361204, "ECCENTRICITY": 0.01667171, "INCLINATION": 98.2232, "RA_OF_ASC_NODE": 10.6306, "ARG_OF_PERICENTER": 117.2893, "MEAN_ANOMALY": 256.7801, "EPHEMERIS_TYPE": 0, "CLASSIFICATION_TYPE": "U", "NORAD_CAT_ID": 30480, "ELEMENT_SET_NO": 999, "REV_AT_EPOCH": 98805, "BSTAR": 0.00019280036, "MEAN_MOTION_DOT": 5.81e-06, "MEAN_MOTION_DDOT": 0}, "tle": {"line1": "1 30480U 99025AGS 25356.28570355  .00000581  00000+0  19280-3 0  9992", "line2": "2 30480  98.2232  10.6306 0166717 117.2893 256.7801 14.33612040988051"}}, "geometry": {"type": "Point", "coordinates": [-175.30719140991351, -41.57284515946414]}}]}